OBJECT_NAME,OBJECT_ID,EPOCH,MEAN_MOTION,ECCENTRICITY,INCLINATION,RA_OF_ASC_NODE,ARG_OF_PERICENTER,MEAN_ANOMALY,EPHEMERIS_TYPE,CLASSIFICATION_TYPE,NORAD_CAT_ID,ELEMENT_SET_NO,REV_AT_EPOCH,BSTAR,MEAN_MOTION_DOT,MEAN_MOTION_DDOT
GLOBALSTAR M069,2007-020C,2026-06-15T23:46:30.298080,12.23471118,.00023627,52.0028,255.5140,145.4957,25.7236,0,U,31573,999,87865,.37881278E-3,-.52E-6,0
GLOBALSTAR M072,2007-020D,2026-06-16T02:49:05.877696,11.91658407,.00014137,51.9924,103.0930,329.6442,43.6351,0,U,31574,999,87485,-.26588521E-3,-.103E-5,0
GLOBALSTAR M066,2007-048C,2026-06-16T00:13:01.723872,12.30387719,.0005474,51.9604,61.2943,41.4074,331.5492,0,U,32265,999,86008,-.44573979E-3,-.147E-5,0
GLOBALSTAR M079,2010-054A,2026-06-16T02:18:37.167264,12.62266059,.00006917,52.0033,111.9905,21.3125,351.6895,0,U,37188,999,72241,-.79055963E-4,-.118E-5,0
GLOBALSTAR M074,2010-054B,2026-06-16T01:24:00.919008,12.62268380,.00005202,52.0007,111.3707,50.5589,30.2720,0,U,37189,999,72301,-.11542731E-3,-.124E-5,0
GLOBALSTAR M076,2010-054C,2026-06-16T03:34:51.441600,12.62261772,.00007161,52.0020,111.2971,41.4149,332.6090,0,U,37190,999,72274,-.11790323E-3,-.125E-5,0
GLOBALSTAR M077,2010-054D,2026-06-16T04:25:25.685184,11.67547798,.00027519,51.9920,181.8415,170.7608,265.5951,0,U,37191,999,72102,.23780889E-4,-.77E-6,0
GLOBALSTAR M075,2010-054E,2026-06-16T06:16:05.487168,12.62267369,.00001483,51.9922,153.0121,20.9904,81.9653,0,U,37192,999,72182,-.10980474E-3,-.123E-5,0
GLOBALSTAR M073,2010-054F,2026-06-16T00:06:08.082144,12.62262106,.00009073,52.0070,67.8932,45.3174,328.1165,0,U,37193,999,72378,.3992332E-5,-.103E-5,0
GLOBALSTAR M083,2011-033A,2026-06-16T06:56:48.268320,12.62263078,.00009244,51.9877,15.2552,65.4440,106.0167,0,U,37739,999,69283,.69107981E-4,-.91E-6,0
GLOBALSTAR M088,2011-033B,2026-06-15T12:44:12.435936,12.62268684,.00007324,52.0221,283.9914,124.3899,315.8519,0,U,37740,999,68828,.81592072E-4,-.89E-6,0
GLOBALSTAR M091,2011-033C,2026-06-15T23:01:49.376064,12.62263889,.0000327,51.9992,245.6535,151.6671,19.5038,0,U,37741,999,68912,.14814E-3,-.77E-6,0
GLOBALSTAR M085,2011-033D,2026-06-16T05:49:12.284256,12.62264152,.00001136,52.0102,196.0826,277.1662,160.2759,0,U,37742,999,68967,.67321268E-4,-.92E-6,0
GLOBALSTAR M081,2011-033E,2026-06-16T08:00:49.119840,12.62265083,.00001239,51.9935,198.2418,107.7851,264.8224,0,U,37743,999,68983,.11702086E-3,-.83E-6,0
GLOBALSTAR M089,2011-033F,2026-06-16T05:09:44.786880,12.62267216,.00003527,51.9906,152.7614,86.9383,286.4269,0,U,37744,999,69066,-.60605995E-4,-.115E-5,0
GLOBALSTAR M084,2011-080A,2026-06-15T21:52:52.868064,12.62267495,.0001079,52.0026,21.1651,83.0171,291.0132,0,U,38040,999,66860,.40987E-4,-.96E-6,0
GLOBALSTAR M080,2011-080B,2026-06-16T07:31:37.469568,12.62269401,.00003758,52.0081,21.6599,69.1135,102.1649,0,U,38041,999,66877,.87727044E-4,-.88E-6,0
GLOBALSTAR M082,2011-080C,2026-06-16T05:59:33.775872,12.62263524,.00005287,52.0102,337.3552,98.5675,72.1126,0,U,38042,999,66947,-.10417677E-3,-.122E-5,0
GLOBALSTAR M092,2011-080D,2026-06-16T00:45:19.660320,12.62266977,.00006807,52.0094,68.4157,61.0111,316.5702,0,U,38043,999,66790,.40214631E-4,-.97E-6,0
GLOBALSTAR M090,2011-080E,2026-06-15T18:23:48.464160,12.62269067,.00007986,52.0143,332.7812,89.9015,283.1384,0,U,38044,999,66953,.27357338E-4,-.99E-6,0
GLOBALSTAR M086,2011-080F,2026-06-16T05:15:34.731936,12.62286675,.00016742,51.9915,331.3351,66.2897,105.4460,0,U,38045,999,66953,.31554525E-4,-.98E-6,0
GLOBALSTAR M097,2013-005A,2026-06-15T21:30:07.346304,12.62247234,.0000307,52.0047,247.2680,128.1118,231.9776,0,U,39072,999,61674,.38227E-4,-.97E-6,0
GLOBALSTAR M093,2013-005B,2026-06-15T22:45:36.308160,12.62265942,.00002019,52.0099,240.4544,94.8134,265.2756,0,U,39073,999,61670,.1809652E-3,-.71E-6,0
GLOBALSTAR M094,2013-005C,2026-06-16T06:21:33.516000,12.62268588,.00003799,51.9928,153.6068,358.7786,1.3080,0,U,39074,999,61835,-.11122652E-3,-.124E-5,0
GLOBALSTAR M096,2013-005D,2026-06-16T06:40:57.833760,12.62265609,.00000429,52.0051,202.3678,246.7108,113.3754,0,U,39075,999,61727,.68242143E-4,-.92E-6,0
GLOBALSTAR M078,2013-005E,2026-06-16T00:20:01.449024,12.62257696,.00005062,51.9888,287.1836,222.9321,137.1507,0,U,39076,999,61586,-.41094719E-3,-.177E-5,0
GLOBALSTAR M095,2013-005F,2026-06-16T00:58:32.844288,12.62263432,.00002518,52.0092,284.7050,131.1351,228.9537,0,U,39077,999,61572,.94596897E-4,-.87E-6,0
GLOBALSTAR M087,2022-064A,2026-06-15T23:23:35.706048,12.62269011,.0000736,52.0007,66.1437,36.3196,323.7721,0,U,52888,999,19098,.3088E-4,-.98E-6,0
